{"type": "FeatureCollection", "features": [{"type": "Feature", "properties": {"norad_id": 26766, "name": "INTELSAT 10 (IS-10)", "group": "intelsat", "lat": 8.400171160783058, "lon": 136.96610891761358, "alt_km": 36152.22489532059, "timestamp": "2025-12-17T19:34:07.712021+00:00", "meta": {"OBJECT_NAME": "INTELSAT 10 (IS-10)", "OBJECT_ID": "2001-019A", "EPOCH": "2025-12-16T15:38:46.684608", "MEAN_MOTION": 0.99077112, "ECCENTRICITY": 0.0007682, "INCLINATION": 8.6387, "RA_OF_ASC_NODE": 61.1181, "ARG_OF_PERICENTER": 227.7006, "MEAN_ANOMALY": 153.3672, "EPHEMERIS_TYPE": 0, "CLASSIFICATION_TYPE": "U", "NORAD_CAT_ID": 26766, "ELEMENT_SET_NO": 999, "REV_AT_EPOCH": 4377, "BSTAR": 0, "MEAN_MOTION_DOT": -2.12e-06, "MEAN_MOTION_DDOT": 0}, "tle": {"line1": "1 26766U 01019A   25350.65192922 -.00000212  00000+0  00000+0 0  9993", "line2": "2 26766   8.6387  61.1181 0007682 227.7006 153.3672  0.99077112 43770"}}, "geometry": {"type": "Point", "coordinates": [136.96610891761358, 8.400171160783058]}}, {"type": "Feature", "properties": {"norad_id": 26900, "name": "INTELSAT 902 (IS-902)", "group": "intelsat", "lat": -5.504849355495179, "lon": -29.91681460738949, "alt_km": 35779.67883935792, "timestamp": "2025-12-17T19:34:07.712045+00:00", "meta": {"OBJECT_NAME": "INTELSAT 902 (IS-902)", "OBJECT_ID": "2001-039A", "EPOCH": "2025-12-15T13:09:02.081664", "MEAN_MOTION": 1.0027087, "ECCENTRICITY": 0.00045028, "INCLINATION": 5.6536, "RA_OF_ASC_NODE": 74.0372, "ARG_OF_PERICENTER": 189.6359, "MEAN_ANOMALY": 327.9329, "EPHEMERIS_TYPE": 0, "CLASSIFICATION_TYPE": "U", "NORAD_CAT_ID": 26900, "ELEMENT_SET_NO": 999, "REV_AT_EPOCH": 8885, "BSTAR": 0, "MEAN_MOTION_DOT": -2.65e-06, "MEAN_MOTION_DDOT": 0}, "tle": {"line1": "1 26900U 01039A   25349.54794076 -.00000265  00000+0  00000+0 0  9997", "line2": "2 26900   5.6536  74.0372 0004502 189.6359 327.9329  1.00270870 88858"}}, "geometry": {"type": "Point", "coordinates": [-29.91681460738949, -5.504849355495179]}}, {"type": "Feature", "properties": {"norad_id": 27380, "name": "INTELSAT 904 (IS-904)", "group": "intelsat", "lat": -6.4171709086419675, "lon": -11.224555991468753, "alt_km": 35781.18387010863, "timestamp": "2025-12-17T19:34:07.712061+00:00", "meta": {"OBJECT_NAME": "INTELSAT 904 (IS-904)", "OBJECT_ID": "2002-007A", "EPOCH": "2025-12-17T02:54:07.486272", "MEAN_MOTION": 1.00271932, "ECCENTRICITY": 0.00016548, "INCLINATION": 6.4651, "RA_OF_ASC_NODE": 71.3825, "ARG_OF_PERICENTER": 243.3413, "MEAN_ANOMALY": 143.3108, "EPHEMERIS_TYPE": 0, "CLASSIFICATION_TYPE": "U", "NORAD_CAT_ID": 27380, "ELEMENT_SET_NO": 999, "REV_AT_EPOCH": 4994, "BSTAR": 0, "MEAN_MOTION_DOT": -2.06e-06, "MEAN_MOTION_DDOT": 0}, "tle": {"line1": "1 27380U 02007A   25351.12091998 -.00000206  00000+0  00000+0 0  9991", "line2": "2 27380   6.4651  71.3825 0001654 243.3413 143.3108  1.00271932 49947"}}, "geometry": {"type": "Point", "coordinates": [-11.224555991468753, -6.4171709086419675]}}, {"type": "Feature", "properties": {"norad_id": 27426, "name": "DIRECTV 5 (TEMPO 1)", "group": "intelsat", "lat": -0.9803318956435756, "lon": -89.94501314610388, "alt_km": 35771.9169531445, "timestamp": "2025-12-17T19:34:07.712074+00:00", "meta": {"OBJECT_NAME": "DIRECTV 5 (TEMPO 1)", "OBJECT_ID": "2002-023A", "EPOCH": "2025-12-17T07:52:39.180864", "MEAN_MOTION": 1.00272685, "ECCENTRICITY": 0.00033931, "INCLINATION": 4.4134, "RA_OF_ASC_NODE": 77.5998, "ARG_OF_PERICENTER": 204.8334, "MEAN_ANOMALY": 171.8199, "EPHEMERIS_TYPE": 0, "CLASSIFICATION_TYPE": "U", "NORAD_CAT_ID": 27426, "ELEMENT_SET_NO": 999, "REV_AT_EPOCH": 8630, "BSTAR": 0, "MEAN_MOTION_DOT": -3.6e-07, "MEAN_MOTION_DDOT": 0}, "tle": {"line1": "1 27426U 02023A   25351.32823126 -.00000036  00000+0  00000+0 0  9999", "line2": "2 27426   4.4134  77.5998 0003393 204.8334 171.8199  1.00272685 86300"}}, "geometry": {"type": "Point", "coordinates": [-89.94501314610388, -0.9803318956435756]}}, {"type": "Feature", "properties": {"norad_id": 27438, "name": "INTELSAT 905 (IS-905)", "group": "intelsat", "lat": 0.9539155324068082, "lon": -116.89404535987126, "alt_km": 35775.299062504, "timestamp": "2025-12-17T19:34:07.712086+00:00", "meta": {"OBJECT_NAME": "INTELSAT 905 (IS-905)", "OBJECT_ID": "2002-027A", "EPOCH": "2025-12-14T04:33:38.635200", "MEAN_MOTION": 1.00274201, "ECCENTRICITY": 0.00026501, "INCLINATION": 6.2894, "RA_OF_ASC_NODE": 72.0398, "ARG_OF_PERICENTER": 202.1249, "MEAN_ANOMALY": 100.1717, "EPHEMERIS_TYPE": 0, "CLASSIFICATION_TYPE": "U", "NORAD_CAT_ID": 27438, "ELEMENT_SET_NO": 999, "REV_AT_EPOCH": 4950, "BSTAR": 0, "MEAN_MOTION_DOT": 1.08e-06, "MEAN_MOTION_DDOT": 0}, "tle": {"line1": "1 27438U 02027A   25348.19003050  .00000108  00000+0  00000+0 0  9992", "line2": "2 27438   6.2894  72.0398 0002650 202.1249 100.1717  1.00274201 49509"}}, "geometry": {"type": "Point", "coordinates": [-116.89404535987126, 0.9539155324068082]}}, {"type": "Feature", "properties": {"norad_id": 27445, "name": "GALAXY 3C (G-3C)", "group": "intelsat", "lat": -1.4030072475735746, "lon": -74.67652059802998, "alt_km": 35788.99863602455, "timestamp": "2025-12-17T19:34:07.712099+00:00", "meta": {"OBJECT_NAME": "GALAXY 3C (G-3C)", "OBJECT_ID": "2002-030A", "EPOCH": "2025-12-16T14:36:52.612992", "MEAN_MOTION": 1.00271844, "ECCENTRICITY": 0.00011086, "INCLINATION": 3.2733, "RA_OF_ASC_NODE": 80.4689, "ARG_OF_PERICENTER": 79.4506, "MEAN_ANOMALY": 49.9335, "EPHEMERIS_TYPE": 0, "CLASSIFICATION_TYPE": "U", "NORAD_CAT_ID": 27445, "ELEMENT_SET_NO": 999, "REV_AT_EPOCH": 4466, "BSTAR": 0, "MEAN_MOTION_DOT": -1.31e-06, "MEAN_MOTION_DDOT": 0}, "tle": {"line1": "1 27445U 02030A   25350.60894228 -.00000131  00000+0  00000+0 0  9995", "line2": "2 27445   3.2733  80.4689 0001108  79.4506  49.9335  1.00271844 44668"}}, "geometry": {"type": "Point", "coordinates": [-74.67652059802998, -1.4030072475735746]}}, {"type": "Feature", "properties": {"norad_id": 27513, "name": "INTELSAT 906 (IS-906)", "group": "intelsat", "lat": 0.8765780599727422, "lon": 84.30772471297723, "alt_km": 35812.2404437298, "timestamp": "2025-12-17T19:34:07.712112+00:00", "meta": {"OBJECT_NAME": "INTELSAT 906 (IS-906)", "OBJECT_ID": "2002-041A", "EPOCH": "2025-12-17T05:04:17.520960", "MEAN_MOTION": 1.00272313, "ECCENTRICITY": 0.00062878, "INCLINATION": 5.3407, "RA_OF_ASC_NODE": 75.1785, "ARG_OF_PERICENTER": 196.2124, "MEAN_ANOMALY": 314.8986, "EPHEMERIS_TYPE": 0, "CLASSIFICATION_TYPE": "U", "NORAD_CAT_ID": 27513, "ELEMENT_SET_NO": 999, "REV_AT_EPOCH": 8520, "BSTAR": 0, "MEAN_MOTION_DOT": 3.3e-07, "MEAN_MOTION_DDOT": 0}, "tle": {"line1": "1 27513U 02041A   25351.21131390  .00000033  00000+0  00000+0 0  9995", "line2": "2 27513   5.3407  75.1785 0006287 196.2124 314.8986  1.00272313 85203"}}, "geometry": {"type": "Point", "coordinates": [84.30772471297723, 0.8765780599727422]}}, {"type": "Feature", "properties": {"norad_id": 27954, "name": "GALAXY 13 (HORIZONS-1)", "group": "intelsat", "lat": 0.5361677578142969, "lon": -129.79188779980987, "alt_km": 35778.013017679405, "timestamp": "2025-12-17T19:34:07.712130+00:00", "meta": {"OBJECT_NAME": "GALAXY 13 (HORIZONS-1)", "OBJECT_ID": "2003-044A", "EPOCH": "2025-12-17T07:31:38.616960", "MEAN_MOTION": 1.00273589, "ECCENTRICITY": 0.00020929, "INCLINATION": 0.9479, "RA_OF_ASC_NODE": 86.4125, "ARG_OF_PERICENTER": 176.8263, "MEAN_ANOMALY": 145.8696, "EPHEMERIS_TYPE": 0, "CLASSIFICATION_TYPE": "U", "NORAD_CAT_ID": 27954, "ELEMENT_SET_NO": 999, "REV_AT_EPOCH": 4474, "BSTAR": 0, "MEAN_MOTION_DOT": 1.57e-06, "MEAN_MOTION_DDOT": 0}, "tle": {"line1": "1 27954U 03044A   25351.31364140  .00000157  00000+0  00000+0 0  9997", "line2": "2 27954   0.9479  86.4125 0002092 176.8263 145.8696  1.00273589 44743"}}, "geometry": {"type": "Point", "coordinates": [-129.79188779980987, 0.5361677578142969]}}, {"type": "Feature", "properties": {"norad_id": 28358, "name": "INTELSAT 10-02", "group": "intelsat", "lat": -0.003512651953433962, "lon": 19.258500572778214, "alt_km": 35784.94447506693, "timestamp": "2025-12-17T19:34:07.712152+00:00", "meta": {"OBJECT_NAME": "INTELSAT 10-02", "OBJECT_ID": "2004-022A", "EPOCH": "2025-12-16T21:54:42.582240", "MEAN_MOTION": 1.00272018, "ECCENTRICITY": 9.679e-05, "INCLINATION": 0.0232, "RA_OF_ASC_NODE": 70.3119, "ARG_OF_PERICENTER": 233.9309, "MEAN_ANOMALY": 109.2716, "EPHEMERIS_TYPE": 0, "CLASSIFICATION_TYPE": "U", "NORAD_CAT_ID": 28358, "ELEMENT_SET_NO": 999, "REV_AT_EPOCH": 7872, "BSTAR": 0, "MEAN_MOTION_DOT": 1.4e-07, "MEAN_MOTION_DDOT": 0}, "tle": {"line1": "1 28358U 04022A   25350.91299285  .00000014  00000+0  00000+0 0  9997", "line2": "2 28358   0.0232  70.3119 0000967 233.9309 109.2716  1.00272018 78728"}}, "geometry": {"type": "Point", "coordinates": [19.258500572778214, -0.003512651953433962]}}, {"type": "Feature", "properties": {"norad_id": 28626, "name": "XM-3 (RHYTHM)", "group": "intelsat", "lat": 0.11048615027680497, "lon": 110.42077359934328, "alt_km": 36163.30977319988, "timestamp": "2025-12-17T19:34:07.712165+00:00", "meta": {"OBJECT_NAME": "XM-3 (RHYTHM)", "OBJECT_ID": "2005-008A", "EPOCH": "2025-12-17T02:38:50.688096", "MEAN_MOTION": 0.98950724, "ECCENTRICITY": 0.00017809, "INCLINATION": 0.1857, "RA_OF_ASC_NODE": 81.8449, "ARG_OF_PERICENTER": 277.3045, "MEAN_ANOMALY": 220.1022, "EPHEMERIS_TYPE": 0, "CLASSIFICATION_TYPE": "U", "NORAD_CAT_ID": 28626, "ELEMENT_SET_NO": 999, "REV_AT_EPOCH": 4079, "BSTAR": 0, "MEAN_MOTION_DOT": -4e-08, "MEAN_MOTION_DDOT": 0}, "tle": {"line1": "1 28626U 05008A   25351.11030889 -.00000004  00000+0  00000+0 0  9996", "line2": "2 28626   0.1857  81.8449 0001780 277.3045 220.1022  0.98950724 40798"}}, "geometry": {"type": "Point", "coordinates": [110.42077359934328, 0.11048615027680497]}}]}